[{"OBJECT_NAME":"ONEWEB-0461","OBJECT_ID":"2022-012AD","EPOCH":"2025-08-31T05:29:34.399104","MEAN_MOTION":13.1764962,"ECCENTRICITY":0.00017233,"INCLINATION":87.9035,"RA_OF_ASC_NODE":63.5291,"ARG_OF_PERICENTER":94.728,"MEAN_ANOMALY":265.4048,"EPHEMERIS_TYPE":0,"CLASSIFICATION_TYPE":"U","NORAD_CAT_ID":51649,"ELEMENT_SET_NO":999,"REV_AT_EPOCH":17570,"BSTAR":-0.00010284299,"MEAN_MOTION_DOT":-2.7e-7,"MEAN_MOTION_DDOT":0},{"OBJECT_NAME":"ONEWEB-0463","OBJECT_ID":"2022-012AE","EPOCH":"2025-08-31T01:24:07.574400","MEAN_MOTION":13.17649704,"ECCENTRICITY":0.00017699,"INCLINATION":87.9021,"RA_OF_ASC_NODE":63.6245,"ARG_OF_PERICENTER":88.8672,"MEAN_ANOMALY":271.2662,"EPHEMERIS_TYPE":0,"CLASSIFICATION_TYPE":"U","NORAD_CAT_ID":51650,"ELEMENT_SET_NO":999,"REV_AT_EPOCH":17546,"BSTAR":-4.4730753e-5,"MEAN_MOTION_DOT":-4.0e-8,"MEAN_MOTION_DDOT":0},{"OBJECT_NAME":"ONEWEB-0464","OBJECT_ID":"2022-012AF","EPOCH":"2025-08-31T02:29:01.879872","MEAN_MOTION":13.10376778,"ECCENTRICITY":0.00015553,"INCLINATION":87.8758,"RA_OF_ASC_NODE":94.144,"ARG_OF_PERICENTER":72.9774,"MEAN_ANOMALY":287.1524,"EPHEMERIS_TYPE":0,"CLASSIFICATION_TYPE":"U","NORAD_CAT_ID":51651,"ELEMENT_SET_NO":999,"REV_AT_EPOCH":17133,"BSTAR":-0.00053012945,"MEAN_MOTION_DOT":-1.72e-6,"MEAN_MOTION_DDOT":0},{"OBJECT_NAME":"ONEWEB-0468","OBJECT_ID":"2022-012AG","EPOCH":"2025-08-31T02:38:35.486016","MEAN_MOTION":13.10375141,"ECCENTRICITY":0.00016635,"INCLINATION":87.8757,"RA_OF_ASC_NODE":94.1345,"ARG_OF_PERICENTER":80.4425,"MEAN_ANOMALY":279.689,"EPHEMERIS_TYPE":0,"CLASSIFICATION_TYPE":"U","NORAD_CAT_ID":51652,"ELEMENT_SET_NO":999,"REV_AT_EPOCH":17131,"BSTAR":0.0018758619,"MEAN_MOTION_DOT":6.68e-6,"MEAN_MOTION_DDOT":0},{"OBJECT_NAME":"ONEWEB-0473","OBJECT_ID":"2022-012AH","EPOCH":"2025-08-31T02:17:03.259968","MEAN_MOTION":13.10374563,"ECCENTRICITY":0.00017491,"INCLINATION":87.8761,"RA_OF_ASC_NODE":94.141,"ARG_OF_PERICENTER":78.9051,"MEAN_ANOMALY":281.2273,"EPHEMERIS_TYPE":0,"CLASSIFICATION_TYPE":"U","NORAD_CAT_ID":51653,"ELEMENT_SET_NO":999,"REV_AT_EPOCH":17131,"BSTAR":-0.00023216762,"MEAN_MOTION_DOT":-6.8e-7,"MEAN_MOTION_DDOT":0},{"OBJECT_NAME":"ONEWEB-0474","OBJECT_ID":"2022-012AJ","EPOCH":"2025-08-31T02:05:06.555552","MEAN_MOTION":13.10375178,"ECCENTRICITY":0.00016862,"INCLINATION":87.8762,"RA_OF_ASC_NODE":94.1033,"ARG_OF_PERICENTER":74.4066,"MEAN_ANOMALY":285.7247,"EPHEMERIS_TYPE":0,"CLASSIFICATION_TYPE":"U","NORAD_CAT_ID":51654,"ELEMENT_SET_NO":999,"REV_AT_EPOCH":17130,"BSTAR":-0.0015417746,"MEAN_MOTION_DOT":-5.26e-6,"MEAN_MOTION_DDOT":0},{"OBJECT_NAME":"ONEWEB-0475","OBJECT_ID":"2022-012AK","EPOCH":"2025-08-31T05:19:50.833632","MEAN_MOTION":13.17648817,"ECCENTRICITY":0.00021386,"INCLINATION":87.9026,"RA_OF_ASC_NODE":63.5742,"ARG_OF_PERICENTER":69.1895,"MEAN_ANOMALY":290.9465,"EPHEMERIS_TYPE":0,"CLASSIFICATION_TYPE":"U","NORAD_CAT_ID":51655,"ELEMENT_SET_NO":999,"REV_AT_EPOCH":17550,"BSTAR":4.6028984e-5,"MEAN_MOTION_DOT":3.1e-7,"MEAN_MOTION_DDOT":0},{"OBJECT_NAME":"ONEWEB-0490","OBJECT_ID":"2022-138A","EPOCH":"2025-08-31T06:53:15.173952","MEAN_MOTION":13.19726157,"ECCENTRICITY":0.0001642,"INCLINATION":87.9278,"RA_OF_ASC_NODE":2.587,"ARG_OF_PERICENTER":94.3806,"MEAN_ANOMALY":265.7515,"EPHEMERIS_TYPE":0,"CLASSIFICATION_TYPE":"U","NORAD_CAT_ID":54113,"ELEMENT_SET_NO":999,"REV_AT_EPOCH":13859,"BSTAR":0.00029437588,"MEAN_MOTION_DOT":1.31e-6,"MEAN_MOTION_DDOT":0},{"OBJECT_NAME":"ONEWEB-0492","OBJECT_ID":"2022-138B","EPOCH":"2025-08-31T05:40:27.285024","MEAN_MOTION":13.1972409,"ECCENTRICITY":0.00015893,"INCLINATION":87.9274,"RA_OF_ASC_NODE":2.6196,"ARG_OF_PERICENTER":100.5002,"MEAN_ANOMALY":259.631,"EPHEMERIS_TYPE":0,"CLASSIFICATION_TYPE":"U","NORAD_CAT_ID":54114,"ELEMENT_SET_NO":999,"REV_AT_EPOCH":13859,"BSTAR":9.0052989e-5,"MEAN_MOTION_DOT":4.9e-7,"MEAN_MOTION_DDOT":0},{"OBJECT_NAME":"ONEWEB-0495","OBJECT_ID":"2022-138C","EPOCH":"2025-08-31T06:57:48.496032","MEAN_MOTION":13.1972553,"ECCENTRICITY":0.00014157,"INCLINATION":87.9265,"RA_OF_ASC_NODE":2.6189,"ARG_OF_PERICENTER":76.233,"MEAN_ANOMALY":283.8961,"EPHEMERIS_TYPE":0,"CLASSIFICATION_TYPE":"U","NORAD_CAT_ID":54115,"ELEMENT_SET_NO":999,"REV_AT_EPOCH":13858,"BSTAR":0.00029316896,"MEAN_MOTION_DOT":1.3e-6,"MEAN_MOTION_DDOT":0},{"OBJECT_NAME":"ONEWEB-0497","OBJECT_ID":"2022-138D","EPOCH":"2025-08-31T05:26:49.958304","MEAN_MOTION":13.19726034,"ECCENTRICITY":0.00017143,"INCLINATION":87.9278,"RA_OF_ASC_NODE":2.606,"ARG_OF_PERICENTER":96.5569,"MEAN_ANOMALY":263.5759,"EPHEMERIS_TYPE":0,"CLASSIFICATION_TYPE":"U","NORAD_CAT_ID":54116,"ELEMENT_SET_NO":999,"REV_AT_EPOCH":13856,"BSTAR":0.00019434911,"MEAN_MOTION_DOT":9.1e-7,"MEAN_MOTION_DDOT":0},{"OBJECT_NAME":"ONEWEB-0499","OBJECT_ID":"2022-138E","EPOCH":"2025-08-31T06:50:57.537024","MEAN_MOTION":13.19727441,"ECCENTRICITY":0.0001988,"INCLINATION":87.9276,"RA_OF_ASC_NODE":2.6125,"ARG_OF_PERICENTER":89.3539,"MEAN_ANOMALY":270.7821,"EPHEMERIS_TYPE":0,"CLASSIFICATION_TYPE":"U","NORAD_CAT_ID":54117,"ELEMENT_SET_NO":999,"REV_AT_EPOCH":13858,"BSTAR":0.00014733005,"MEAN_MOTION_DOT":7.2e-7,"MEAN_MOTION_DDOT":0},{"OBJECT_NAME":"ONEWEB-0500","OBJECT_ID":"2022-138F","EPOCH":"2025-08-31T06:55:32.740032","MEAN_MOTION":13.19726057,"ECCENTRICITY":0.0001767,"INCLINATION":87.928,"RA_OF_ASC_NODE":2.5974,"ARG_OF_PERICENTER":100.6021,"MEAN_ANOMALY":259.5311,"EPHEMERIS_TYPE":0,"CLASSIFICATION_TYPE":"U","NORAD_CAT_ID":54118,"ELEMENT_SET_NO":999,"REV_AT_EPOCH":13859,"BSTAR":0.000292174,"MEAN_MOTION_DOT":1.3e-6,"MEAN_MOTION_DDOT":0},{"OBJECT_NAME":"ONEWEB-0501","OBJECT_ID":"2022-138G","EPOCH":"2025-08-31T05:49:33.904128","MEAN_MOTION":13.19727287,"ECCENTRICITY":0.00016168,"INCLINATION":87.928,"RA_OF_ASC_NODE":2.5988,"ARG_OF_PERICENTER":85.8184,"MEAN_ANOMALY":274.3133,"EPHEMERIS_TYPE":0,"CLASSIFICATION_TYPE":"U","NORAD_CAT_ID":54119,"ELEMENT_SET_NO":999,"REV_AT_EPOCH":13856,"BSTAR":0.00013583706,"MEAN_MOTION_DOT":6.7e-7,"MEAN_MOTION_DDOT":0},{"OBJECT_NAME":"ONEWEB-0502","OBJECT_ID":"2022-138H","EPOCH":"2025-08-31T01:50:43.658880","MEAN_MOTION":13.19727369,"ECCENTRICITY":0.00017767,"INCLINATION":87.9277,"RA_OF_ASC_NODE":2.615,"ARG_OF_PERICENTER":88.8505,"MEAN_ANOMALY":271.2831,"EPHEMERIS_TYPE":0,"CLASSIFICATION_TYPE":"U","NORAD_CAT_ID":54120,"ELEMENT_SET_NO":999,"REV_AT_EPOCH":13856,"BSTAR":0.00016620024,"MEAN_MOTION_DOT":7.9e-7,"MEAN_MOTION_DDOT":0},{"OBJECT_NAME":"ONEWEB-0503","OBJECT_ID":"2022-138J","EPOCH":"2025-08-31T07:02:21.590016","MEAN_MOTION":13.19724582,"ECCENTRICITY":0.00020896,"INCLINATION":87.9278,"RA_OF_ASC_NODE":2.5766,"ARG_OF_PERICENTER":95.6851,"MEAN_ANOMALY":264.452,"EPHEMERIS_TYPE":0,"CLASSIFICATION_TYPE":"U","NORAD_CAT_ID":54121,"ELEMENT_SET_NO":999,"REV_AT_EPOCH":13858,"BSTAR":0.00015662708,"MEAN_MOTION_DOT":7.6e-7,"MEAN_MOTION_DDOT":0},{"OBJECT_NAME":"ONEWEB-0504","OBJECT_ID":"2022-138K","EPOCH":"2025-08-31T06:44:08.218752","MEAN_MOTION":13.19725293,"ECCENTRICITY":0.00018533,"INCLINATION":87.9279,"RA_OF_ASC_NODE":2.5954,"ARG_OF_PERICENTER":88.8161,"MEAN_ANOMALY":271.3185,"EPHEMERIS_TYPE":0,"CLASSIFICATION_TYPE":"U","NORAD_CAT_ID":54122,"ELEMENT_SET_NO":999,"REV_AT_EPOCH":13859,"BSTAR":-0.00036996191,"MEAN_MOTION_DOT":-1.35e-6,"MEAN_MOTION_DDOT":0}]
