ONEWEB-0461             
1 51649U 22012AD  25243.22887036 -.00000027  00000+0 -10284-3 0  9992
2 51649  87.9035  63.5291 0001723  94.7280 265.4048 13.17649620175706
ONEWEB-0463             
1 51650U 22012AE  25243.05842100 -.00000004  00000+0 -44731-4 0  9998
2 51650  87.9021  63.6245 0001769  88.8672 271.2662 13.17649704175465
ONEWEB-0464             
1 51651U 22012AF  25243.10349398 -.00000172  00000+0 -53013-3 0  9994
2 51651  87.8758  94.1440 0001555  72.9774 287.1524 13.10376778171334
ONEWEB-0468             
1 51652U 22012AG  25243.11013294  .00000668  00000+0  18759-2 0  9994
2 51652  87.8757  94.1345 0001663  80.4425 279.6890 13.10375141171318
ONEWEB-0473             
1 51653U 22012AH  25243.09517662 -.00000068  00000+0 -23217-3 0  9992
2 51653  87.8761  94.1410 0001749  78.9051 281.2273 13.10374563171310
ONEWEB-0474             
1 51654U 22012AJ  25243.08688143 -.00000526  00000+0 -15418-2 0  9997
2 51654  87.8762  94.1033 0001686  74.4066 285.7247 13.10375178171302
ONEWEB-0475             
1 51655U 22012AK  25243.22211613  .00000031  00000+0  46029-4 0  9991
2 51655  87.9026  63.5742 0002138  69.1895 290.9465 13.17648817175504
ONEWEB-0490             
1 54113U 22138A   25243.28698118  .00000131  00000+0  29438-3 0  9992
2 54113  87.9278   2.5870 0001642  94.3806 265.7515 13.19726157138591
ONEWEB-0492             
1 54114U 22138B   25243.23642691  .00000049  00000+0  90053-4 0  9993
2 54114  87.9274   2.6196 0001589 100.5002 259.6310 13.19724090138597
ONEWEB-0495             
1 54115U 22138C   25243.29014463  .00000130  00000+0  29317-3 0  9995
2 54115  87.9265   2.6189 0001415  76.2330 283.8961 13.19725530138581
ONEWEB-0497             
1 54116U 22138D   25243.22696711  .00000091  00000+0  19435-3 0  9997
2 54116  87.9278   2.6060 0001714  96.5569 263.5759 13.19726034138563
ONEWEB-0499             
1 54117U 22138E   25243.28538816  .00000072  00000+0  14733-3 0  9990
2 54117  87.9276   2.6125 0001988  89.3539 270.7821 13.19727441138589
ONEWEB-0500             
1 54118U 22138F   25243.28857338  .00000130  00000+0  29217-3 0  9992
2 54118  87.9280   2.5974 0001767 100.6021 259.5311 13.19726057138596
ONEWEB-0501             
1 54119U 22138G   25243.24275352  .00000067  00000+0  13584-3 0  9998
2 54119  87.9280   2.5988 0001616  85.8184 274.3133 13.19727287138569
ONEWEB-0502             
1 54120U 22138H   25243.07689420  .00000079  00000+0  16620-3 0  9993
2 54120  87.9277   2.6150 0001776  88.8505 271.2831 13.19727369138568
ONEWEB-0503             
1 54121U 22138J   25243.29330544  .00000076  00000+0  15663-3 0  9991
2 54121  87.9278   2.5766 0002089  95.6851 264.4520 13.19724582138585
ONEWEB-0504             
1 54122U 22138K   25243.28065068 -.00000135  00000+0 -36996-3 0  9997
2 54122  87.9279   2.5954 0001853  88.8161 271.3185 13.19725293138597
